CTC1_L_00291001-01
1 31137U 25217AF  26037.47804398  .00000000  00000+0  00000-0 0  9992
2 31137  90.0000   0.0000 0000000   0.0000   0.0000 15.18623352    13
CTC1_L_00291001-02
1 31138U 26895HF  26037.47804398  .00000000  00000+0  00000-0 0  9996
2 31138  90.0000   0.0000 0000000   0.0000  90.0000 15.18623352    13
CTC1_L_00291001-03
1 31139U 22059TK  26037.47804398  .00000000  00000+0  00000-0 0  9995
2 31139  90.0000   0.0000 0000000   0.0000 180.0000 15.18623352    14
CTC1_L_00291001-04
1 31140U 24587PI  26037.47804398  .00000000  00000+0  00000-0 0  9995
2 31140  90.0000   0.0000 0000000   0.0000 270.0000 15.18623352    16
CTC1_L_00291002-01
1 31141U 23222XN  26037.47804398  .00000000  00000+0  00000-0 0  9991
2 31141  90.0000  12.0000 0000000   0.0000  12.0000 15.18623352    14
CTC1_L_00291002-02
1 31142U 24061XH  26037.47804398  .00000000  00000+0  00000-0 0  9994
2 31142  90.0000  12.0000 0000000   0.0000 102.0000 15.18623352    15
CTC1_L_00291002-03
1 31143U 24748RF  26037.47804398  .00000000  00000+0  00000-0 0  9997
2 31143  90.0000  12.0000 0000000   0.0000 192.0000 15.18623352    15
CTC1_L_00291002-04
1 31144U 24006GE  26037.47804398  .00000000  00000+0  00000-0 0  9995
2 31144  90.0000  12.0000 0000000   0.0000 282.0000 15.18623352    16
CTC1_L_00291003-01
1 31145U 25615YD  26037.47804398  .00000000  00000+0  00000-0 0  9993
2 31145  90.0000  24.0000 0000000   0.0000  24.0000 15.18623352    14
CTC1_L_00291003-02
1 31146U 26862RP  26037.47804398  .00000000  00000+0  00000-0 0  9999
2 31146  90.0000  24.0000 0000000   0.0000 114.0000 15.18623352    15
CTC1_L_00291003-03
1 31147U 22945L   26037.47804398  .00000000  00000+0  00000-0 0  9998
2 31147  90.0000  24.0000 0000000   0.0000 204.0000 15.18623352    16
CTC1_L_00291003-04
1 31148U 25805GL  26037.47804398  .00000000  00000+0  00000-0 0  9997
2 31148  90.0000  24.0000 0000000   0.0000 294.0000 15.18623352    16
CTC1_L_00291004-01
1 31149U 25253VF  26037.47804398  .00000000  00000+0  00000-0 0  9995
2 31149  90.0000  36.0000 0000000   0.0000  36.0000 15.18623352    14
CTC1_L_00291004-02
1 31150U 25801FQ  26037.47804398  .00000000  00000+0  00000-0 0  9996
2 31150  90.0000  36.0000 0000000   0.0000 126.0000 15.18623352    16
CTC1_L_00291004-03
1 31151U 24083FN  26037.47804398  .00000000  00000+0  00000-0 0  9998
2 31151  90.0000  36.0000 0000000   0.0000 216.0000 15.18623352    17
CTC1_L_00291004-04
1 31152U 25785IQ  26037.47804398  .00000000  00000+0  00000-0 0  9999
2 31152  90.0000  36.0000 0000000   0.0000 306.0000 15.18623352    18
CTC1_L_00291005-01
1 31153U 22604MT  26037.47804398  .00000000  00000+0  00000-0 0  9997
2 31153  90.0000  48.0000 0000000   0.0000  48.0000 15.18623352    15
CTC1_L_00291005-02
1 31154U 24489YD  26037.47804398  .00000000  00000+0  00000-0 0  9991
2 31154  90.0000  48.0000 0000000   0.0000 138.0000 15.18623352    16
CTC1_L_00291005-03
1 31155U 24748EU  26037.47804398  .00000000  00000+0  00000-0 0  9990
2 31155  90.0000  48.0000 0000000   0.0000 228.0000 15.18623352    17
CTC1_L_00291005-04
1 31156U 22146CI  26037.47804398  .00000000  00000+0  00000-0 0  9991
2 31156  90.0000  48.0000 0000000   0.0000 318.0000 15.18623352    18
CTC1_L_00291006-01
1 31157U 24948DA  26037.47804398  .00000000  00000+0  00000-0 0  9994
2 31157  90.0000  60.0000 0000000   0.0000  60.0000 15.18623352    17
CTC1_L_00291006-02
1 31158U 26456QI  26037.47804398  .00000000  00000+0  00000-0 0  9991
2 31158  90.0000  60.0000 0000000   0.0000 150.0000 15.18623352    18
CTC1_L_00291006-03
1 31159U 26212YN  26037.47804398  .00000000  00000+0  00000-0 0  9992
2 31159  90.0000  60.0000 0000000   0.0000 240.0000 15.18623352    19
CTC1_L_00291006-04
1 31160U 24535YS  26037.47804398  .00000000  00000+0  00000-0 0  9990
2 31160  90.0000  60.0000 0000000   0.0000 330.0000 15.18623352    11
CTC1_L_00291007-01
1 31161U 25370LX  26037.47804398  .00000000  00000+0  00000-0 0  9999
2 31161  90.0000  72.0000 0000000   0.0000  72.0000 15.18623352    18
CTC1_L_00291007-02
1 31162U 25581KW  26037.47804398  .00000000  00000+0  00000-0 0  9994
2 31162  90.0000  72.0000 0000000   0.0000 162.0000 15.18623352    19
CTC1_L_00291007-03
1 31163U 22096RN  26037.47804398  .00000000  00000+0  00000-0 0  9993
2 31163  90.0000  72.0000 0000000   0.0000 252.0000 15.18623352    10
CTC1_L_00291007-04
1 31164U 25115BB  26037.47804398  .00000000  00000+0  00000-0 0  9999
2 31164  90.0000  72.0000 0000000   0.0000 342.0000 15.18623352    11
CTC1_L_00291008-01
1 31165U 26223FB  26037.47804398  .00000000  00000+0  00000-0 0  9991
2 31165  90.0000  84.0000 0000000   0.0000  84.0000 15.18623352    18
CTC1_L_00291008-02
1 31166U 23889OT  26037.47804398  .00000000  00000+0  00000-0 0  9997
2 31166  90.0000  84.0000 0000000   0.0000 174.0000 15.18623352    19
CTC1_L_00291008-03
1 31167U 23213MY  26037.47804398  .00000000  00000+0  00000-0 0  9999
2 31167  90.0000  84.0000 0000000   0.0000 264.0000 15.18623352    10
CTC1_L_00291008-04
1 31168U 26619OZ  26037.47804398  .00000000  00000+0  00000-0 0  9993
2 31168  90.0000  84.0000 0000000   0.0000 354.0000 15.18623352    11
CTC1_L_00291009-01
1 31169U 26536YX  26037.47804398  .00000000  00000+0  00000-0 0  9992
2 31169  90.0000  96.0000 0000000   0.0000  96.0000 15.18623352    18
CTC1_L_00291009-02
1 31170U 25736S   26037.47804398  .00000000  00000+0  00000-0 0  9995
2 31170  90.0000  96.0000 0000000   0.0000 186.0000 15.18623352    10
CTC1_L_00291009-03
1 31171U 22163HW  26037.47804398  .00000000  00000+0  00000-0 0  9997
2 31171  90.0000  96.0000 0000000   0.0000 276.0000 15.18623352    11
CTC1_L_00291009-04
1 31172U 25610MC  26037.47804398  .00000000  00000+0  00000-0 0  9998
2 31172  90.0000  96.0000 0000000   0.0000   6.0000 15.18623352    13
CTC1_L_00291010-01
1 31173U 26989GE  26037.47804398  .00000000  00000+0  00000-0 0  9999
2 31173  90.0000 108.0000 0000000   0.0000 108.0000 15.18623352    11
CTC1_L_00291010-02
1 31174U 26116AQ  26037.47804398  .00000000  00000+0  00000-0 0  9992
2 31174  90.0000 108.0000 0000000   0.0000 198.0000 15.18623352    11
CTC1_L_00291010-03
1 31175U 22115AE  26037.47804398  .00000000  00000+0  00000-0 0  9998
2 31175  90.0000 108.0000 0000000   0.0000 288.0000 15.18623352    12
CTC1_L_00291010-04
1 31176U 26514GQ  26037.47804398  .00000000  00000+0  00000-0 0  9996
2 31176  90.0000 108.0000 0000000   0.0000  18.0000 15.18623352    14
CTC1_L_00291011-01
1 31177U 23108MJ  26037.47804398  .00000000  00000+0  00000-0 0  9993
2 31177  90.0000 120.0000 0000000   0.0000 120.0000 15.18623352    13
CTC1_L_00291011-02
1 31178U 25757BB  26037.47804398  .00000000  00000+0  00000-0 0  9996
2 31178  90.0000 120.0000 0000000   0.0000 210.0000 15.18623352    14
CTC1_L_00291011-03
1 31179U 25675LT  26037.47804398  .00000000  00000+0  00000-0 0  9996
2 31179  90.0000 120.0000 0000000   0.0000 300.0000 15.18623352    15
CTC1_L_00291011-04
1 31180U 26967UX  26037.47804398  .00000000  00000+0  00000-0 0  9993
2 31180  90.0000 120.0000 0000000   0.0000  30.0000 15.18623352    17
CTC1_L_00291012-01
1 31181U 24024GW  26037.47804398  .00000000  00000+0  00000-0 0  9996
2 31181  90.0000 132.0000 0000000   0.0000 132.0000 15.18623352    14
CTC1_L_00291012-02
1 31182U 23623TL  26037.47804398  .00000000  00000+0  00000-0 0  9991
2 31182  90.0000 132.0000 0000000   0.0000 222.0000 15.18623352    15
CTC1_L_00291012-03
1 31183U 22963LZ  26037.47804398  .00000000  00000+0  00000-0 0  9998
2 31183  90.0000 132.0000 0000000   0.0000 312.0000 15.18623352    16
CTC1_L_00291012-04
1 31184U 26769AW  26037.47804398  .00000000  00000+0  00000-0 0  9997
2 31184  90.0000 132.0000 0000000   0.0000  42.0000 15.18623352    17
CTC1_L_00291013-01
1 31185U 24463TH  26037.47804398  .00000000  00000+0  00000-0 0  9997
2 31185  90.0000 144.0000 0000000   0.0000 144.0000 15.18623352    14
CTC1_L_00291013-02
1 31186U 25660YE  26037.47804398  .00000000  00000+0  00000-0 0  9998
2 31186  90.0000 144.0000 0000000   0.0000 234.0000 15.18623352    15
CTC1_L_00291013-03
1 31187U 22704DH  26037.47804398  .00000000  00000+0  00000-0 0  9995
2 31187  90.0000 144.0000 0000000   0.0000 324.0000 15.18623352    16
CTC1_L_00291013-04
1 31188U 22343KP  26037.47804398  .00000000  00000+0  00000-0 0  9995
2 31188  90.0000 144.0000 0000000   0.0000  54.0000 15.18623352    17
CTC1_L_00291014-01
1 31189U 25742BD  26037.47804398  .00000000  00000+0  00000-0 0  9992
2 31189  90.0000 156.0000 0000000   0.0000 156.0000 15.18623352    14
CTC1_L_00291014-02
1 31190U 25181XN  26037.47804398  .00000000  00000+0  00000-0 0  9991
2 31190  90.0000 156.0000 0000000   0.0000 246.0000 15.18623352    16
CTC1_L_00291014-03
1 31191U 24400IB  26037.47804398  .00000000  00000+0  00000-0 0  9995
2 31191  90.0000 156.0000 0000000   0.0000 336.0000 15.18623352    17
CTC1_L_00291014-04
1 31192U 23660EI  26037.47804398  .00000000  00000+0  00000-0 0  9993
2 31192  90.0000 156.0000 0000000   0.0000  66.0000 15.18623352    18
CTC1_L_00291015-01
1 31193U 23171OS  26037.47804398  .00000000  00000+0  00000-0 0  9991
2 31193  90.0000 168.0000 0000000   0.0000 168.0000 15.18623352    15
CTC1_L_00291015-02
1 31194U 26777ZB  26037.47804398  .00000000  00000+0  00000-0 0  9997
2 31194  90.0000 168.0000 0000000   0.0000 258.0000 15.18623352    16
CTC1_L_00291015-03
1 31195U 25977HN  26037.47804398  .00000000  00000+0  00000-0 0  9999
2 31195  90.0000 168.0000 0000000   0.0000 348.0000 15.18623352    17
CTC1_L_00291015-04
1 31196U 22652OY  26037.47804398  .00000000  00000+0  00000-0 0  9997
2 31196  90.0000 168.0000 0000000   0.0000  78.0000 15.18623352    18
CTC1_L_00291016-01
1 31197U 24158PY  26037.47804398  .00000000  00000+0  00000-0 0  9991
2 31197  90.0000 180.0000 0000000   0.0000 180.0000 15.18623352    17
CTC1_L_00291016-02
1 31198U 23521UE  26037.47804398  .00000000  00000+0  00000-0 0  9995
2 31198  90.0000 180.0000 0000000   0.0000 270.0000 15.18623352    18
